[{"OBJECT_NAME":"STARLINK-35203","OBJECT_ID":"2025-198G","EPOCH":"2026-03-09T20:55:00.700032","MEAN_MOTION":15.3020186,"ECCENTRICITY":0.00010218,"INCLINATION":53.1582,"RA_OF_ASC_NODE":270.4597,"ARG_OF_PERICENTER":92.6309,"MEAN_ANOMALY":267.4809,"EPHEMERIS_TYPE":0,"CLASSIFICATION_TYPE":"U","NORAD_CAT_ID":65498,"ELEMENT_SET_NO":999,"REV_AT_EPOCH":2864,"BSTAR":0.0010082635,"MEAN_MOTION_DOT":0.00029623,"MEAN_MOTION_DDOT":0},{"OBJECT_NAME":"COSMOS 2251 DEB","OBJECT_ID":"1993-036BN","EPOCH":"2026-03-09T17:54:27.582912","MEAN_MOTION":15.31852549,"ECCENTRICITY":0.0043021,"INCLINATION":74.0291,"RA_OF_ASC_NODE":318.0178,"ARG_OF_PERICENTER":323.0874,"MEAN_ANOMALY":36.7369,"EPHEMERIS_TYPE":0,"CLASSIFICATION_TYPE":"U","NORAD_CAT_ID":33821,"ELEMENT_SET_NO":999,"REV_AT_EPOCH":76330,"BSTAR":0.0011195846,"MEAN_MOTION_DOT":0.00035571,"MEAN_MOTION_DDOT":0}]
